[{"OBJECT_NAME":"KUIPER-00126","OBJECT_ID":"2025-228J","EPOCH":"2026-03-09T04:31:57.445248","MEAN_MOTION":14.79934112,"ECCENTRICITY":9.562e-5,"INCLINATION":51.9024,"RA_OF_ASC_NODE":2.8184,"ARG_OF_PERICENTER":103.8093,"MEAN_ANOMALY":256.2976,"EPHEMERIS_TYPE":0,"CLASSIFICATION_TYPE":"U","NORAD_CAT_ID":65955,"ELEMENT_SET_NO":999,"REV_AT_EPOCH":2315,"BSTAR":0.00032955601,"MEAN_MOTION_DOT":2.292e-5,"MEAN_MOTION_DDOT":0},{"OBJECT_NAME":"CZ-6A DEB","OBJECT_ID":"2022-151PH","EPOCH":"2026-03-09T14:56:16.423584","MEAN_MOTION":14.64144317,"ECCENTRICITY":0.0075877,"INCLINATION":98.6304,"RA_OF_ASC_NODE":123.0655,"ARG_OF_PERICENTER":254.9469,"MEAN_ANOMALY":104.3326,"EPHEMERIS_TYPE":0,"CLASSIFICATION_TYPE":"U","NORAD_CAT_ID":54631,"ELEMENT_SET_NO":999,"REV_AT_EPOCH":17420,"BSTAR":0.0021803,"MEAN_MOTION_DOT":0.00011915,"MEAN_MOTION_DDOT":0}]
